{"type": "FeatureCollection", "features": [ {"type": "Feature", "properties": {"norad_id": 34327, "name": "COSMOS 2251 DEB", "group": "cosmos-2251-debris", "lat": -72.46733950016774, "lon": 44.70095466911514, "alt_km": 599.6966345082665, "timestamp": "2025-12-18T23:35:49.457183+00:00", "meta": {"OBJECT_NAME": "COSMOS 2251 DEB", "OBJECT_ID": "1993-036NZ", "EPOCH": "2025-12-18T12:59:52.288224", "MEAN_MOTION": 14.89304888, "ECCENTRICITY": 0.00331713, "INCLINATION": 73.9924, "RA_OF_ASC_NODE": 160.2584, "ARG_OF_PERICENTER": 335.4801, "MEAN_ANOMALY": 80.811, "EPHEMERIS_TYPE": 0, "CLASSIFICATION_TYPE": "U", "NORAD_CAT_ID": 34327, "ELEMENT_SET_NO": 999, "REV_AT_EPOCH": 89594, "BSTAR": 0.00094254705, "MEAN_MOTION_DOT": 9.001e-05, "MEAN_MOTION_DDOT": 0}, "tle": {"line1": "1 34327U 93036NZ  25352.54157741  .00009001  00000+0  94255-3 0  9998", "line2": "2 34327  73.9924 160.2584 0033171 335.4801  80.8110 14.89304888895946"}}, "geometry": {"type": "Point", "coordinates": [44.70095466911514, -72.46733950016774]}}, {"type": "Feature", "properties": {"norad_id": 34340, "name": "COSMOS 2251 DEB", "group": "cosmos-2251-debris", "lat": 57.807007457369224, "lon": 90.59808427919654, "alt_km": 898.0858865674418, "timestamp": "2025-12-18T23:35:49.457193+00:00", "meta": {"OBJECT_NAME": "COSMOS 2251 DEB", "OBJECT_ID": "1993-036PN", "EPOCH": "2025-12-18T13:10:37.177824", "MEAN_MOTION": 13.79594077, "ECCENTRICITY": 0.02833689, "INCLINATION": 74.0787, "RA_OF_ASC_NODE": 298.2841, "ARG_OF_PERICENTER": 44.7005, "MEAN_ANOMALY": 74.9943, "EPHEMERIS_TYPE": 0, "CLASSIFICATION_TYPE": "U", "NORAD_CAT_ID": 34340, "ELEMENT_SET_NO": 999, "REV_AT_EPOCH": 84348, "BSTAR": 0.0012941128, "MEAN_MOTION_DOT": 1.783e-05, "MEAN_MOTION_DDOT": 0}, "tle": {"line1": "1 34340U 93036PN  25352.54904141  .00001783  00000+0  12941-2 0  9997", "line2": "2 34340  74.0787 298.2841 0283368  44.7005  74.9943 13.79594077843488"}}, "geometry": {"type": "Point", "coordinates": [90.59808427919654, 57.807007457369224]}}, {"type": "Feature", "properties": {"norad_id": 34343, "name": "COSMOS 2251 DEB", "group": "cosmos-2251-debris", "lat": 45.09528498598063, "lon": 94.15568564057835, "alt_km": 649.266578759386, "timestamp": "2025-12-18T23:35:49.457203+00:00", "meta": {"OBJECT_NAME": "COSMOS 2251 DEB", "OBJECT_ID": "1993-036PR", "EPOCH": "2025-12-18T15:45:35.304768", "MEAN_MOTION": 14.69529316, "ECCENTRICITY": 0.00238905, "INCLINATION": 74.0206, "RA_OF_ASC_NODE": 78.0802, "ARG_OF_PERICENTER": 350.7916, "MEAN_ANOMALY": 129.6595, "EPHEMERIS_TYPE": 0, "CLASSIFICATION_TYPE": "U", "NORAD_CAT_ID": 34343, "ELEMENT_SET_NO": 999, "REV_AT_EPOCH": 88817, "BSTAR": 0.00094976164, "MEAN_MOTION_DOT": 5.632e-05, "MEAN_MOTION_DDOT": 0}, "tle": {"line1": "1 34343U 93036PR  25352.65665862  .00005632  00000+0  94976-3 0  9992", "line2": "2 34343  74.0206  78.0802 0023890 350.7916 129.6595 14.69529316888171"}}, "geometry": {"type": "Point", "coordinates": [94.15568564057835, 45.09528498598063]}}, {"type": "Feature", "properties": {"norad_id": 34344, "name": "COSMOS 2251 DEB", "group": "cosmos-2251-debris", "lat": 36.683551699185905, "lon": 111.562272953275, "alt_km": 883.1525209057963, "timestamp": "2025-12-18T23:35:49.457214+00:00", "meta": {"OBJECT_NAME": "COSMOS 2251 DEB", "OBJECT_ID": "1993-036PS", "EPOCH": "2025-12-17T08:42:03.547584", "MEAN_MOTION": 14.16444992, "ECCENTRICITY": 0.0156104, "INCLINATION": 73.9788, "RA_OF_ASC_NODE": 102.095, "ARG_OF_PERICENTER": 285.3081, "MEAN_ANOMALY": 130.6884, "EPHEMERIS_TYPE": 0, "CLASSIFICATION_TYPE": "U", "NORAD_CAT_ID": 34344, "ELEMENT_SET_NO": 999, "REV_AT_EPOCH": 86162, "BSTAR": 0.0016063486, "MEAN_MOTION_DOT": 3.573e-05, "MEAN_MOTION_DDOT": 0}, "tle": {"line1": "1 34344U 93036PS  25351.36254106  .00003573  00000+0  16063-2 0  9997", "line2": "2 34344  73.9788 102.0950 0156104 285.3081 130.6884 14.16444992861620"}}, "geometry": {"type": "Point", "coordinates": [111.562272953275, 36.683551699185905]}}, {"type": "Feature", "properties": {"norad_id": 34346, "name": "COSMOS 2251 DEB", "group": "cosmos-2251-debris", "lat": 43.575267261779956, "lon": 105.56444467411968, "alt_km": 745.8612248407035, "timestamp": "2025-12-18T23:35:49.457224+00:00", "meta": {"OBJECT_NAME": "COSMOS 2251 DEB", "OBJECT_ID": "1993-036PU", "EPOCH": "2025-12-17T21:32:12.297984", "MEAN_MOTION": 13.99708134, "ECCENTRICITY": 0.02061764, "INCLINATION": 73.9945, "RA_OF_ASC_NODE": 303.2966, "ARG_OF_PERICENTER": 120.985, "MEAN_ANOMALY": 303.0993, "EPHEMERIS_TYPE": 0, "CLASSIFICATION_TYPE": "U", "NORAD_CAT_ID": 34346, "ELEMENT_SET_NO": 999, "REV_AT_EPOCH": 85482, "BSTAR": 0.00078414388, "MEAN_MOTION_DOT": 1.356e-05, "MEAN_MOTION_DDOT": 0}, "tle": {"line1": "1 34346U 93036PU  25351.89736456  .00001356  00000+0  78414-3 0  9996", "line2": "2 34346  73.9945 303.2966 0206176 120.9850 303.0993 13.99708134854824"}}, "geometry": {"type": "Point", "coordinates": [105.56444467411968, 43.575267261779956]}}, {"type": "Feature", "properties": {"norad_id": 34383, "name": "COSMOS 2251 DEB", "group": "cosmos-2251-debris", "lat": -73.92016038634269, "lon": -158.9074260200135, "alt_km": 545.9611770186793, "timestamp": "2025-12-18T23:35:49.457235+00:00", "meta": {"OBJECT_NAME": "COSMOS 2251 DEB", "OBJECT_ID": "1993-036PY", "EPOCH": "2025-12-17T21:11:36.601728", "MEAN_MOTION": 15.09436558, "ECCENTRICITY": 0.00027956, "INCLINATION": 74.022, "RA_OF_ASC_NODE": 287.0888, "ARG_OF_PERICENTER": 47.2738, "MEAN_ANOMALY": 8.7279, "EPHEMERIS_TYPE": 0, "CLASSIFICATION_TYPE": "U", "NORAD_CAT_ID": 34383, "ELEMENT_SET_NO": 999, "REV_AT_EPOCH": 89191, "BSTAR": 0.0021473585, "MEAN_MOTION_DOT": 0.00034495, "MEAN_MOTION_DDOT": 0}, "tle": {"line1": "1 34383U 93036PY  25351.88306252  .00034495  00000+0  21474-2 0  9996", "line2": "2 34383  74.0220 287.0888 0002795  47.2738   8.7279 15.09436558891910"}}, "geometry": {"type": "Point", "coordinates": [-158.9074260200135, -73.92016038634269]}}, {"type": "Feature", "properties": {"norad_id": 34387, "name": "COSMOS 2251 DEB", "group": "cosmos-2251-debris", "lat": 1.877084342641924, "lon": 19.753698441261992, "alt_km": 761.2222510427973, "timestamp": "2025-12-18T23:35:49.457335+00:00", "meta": {"OBJECT_NAME": "COSMOS 2251 DEB", "OBJECT_ID": "1993-036QC", "EPOCH": "2025-12-18T14:45:13.749408", "MEAN_MOTION": 14.43832865, "ECCENTRICITY": 0.00388476, "INCLINATION": 74.0389, "RA_OF_ASC_NODE": 200.9758, "ARG_OF_PERICENTER": 296.8914, "MEAN_ANOMALY": 126.9828, "EPHEMERIS_TYPE": 0, "CLASSIFICATION_TYPE": "U", "NORAD_CAT_ID": 34387, "ELEMENT_SET_NO": 999, "REV_AT_EPOCH": 88266, "BSTAR": 0.00022689206, "MEAN_MOTION_DOT": 7.53e-06, "MEAN_MOTION_DDOT": 0}, "tle": {"line1": "1 34387U 93036QC  25352.61474247  .00000753  00000+0  22689-3 0  9992", "line2": "2 34387  74.0389 200.9758 0038847 296.8914 126.9828 14.43832865882668"}}, "geometry": {"type": "Point", "coordinates": [19.753698441261992, 1.877084342641924]}}, {"type": "Feature", "properties": {"norad_id": 34388, "name": "COSMOS 2251 DEB", "group": "cosmos-2251-debris", "lat": -67.80537663200633, "lon": 166.84592105020445, "alt_km": 725.7022947343858, "timestamp": "2025-12-18T23:35:49.457348+00:00", "meta": {"OBJECT_NAME": "COSMOS 2251 DEB", "OBJECT_ID": "1993-036QD", "EPOCH": "2025-12-18T14:07:39.461952", "MEAN_MOTION": 14.49392854, "ECCENTRICITY": 0.00138731, "INCLINATION": 74.0383, "RA_OF_ASC_NODE": 212.135, "ARG_OF_PERICENTER": 260.0338, "MEAN_ANOMALY": 127.6426, "EPHEMERIS_TYPE": 0, "CLASSIFICATION_TYPE": "U", "NORAD_CAT_ID": 34388, "ELEMENT_SET_NO": 999, "REV_AT_EPOCH": 88240, "BSTAR": 0.00046981834, "MEAN_MOTION_DOT": 1.771e-05, "MEAN_MOTION_DDOT": 0}, "tle": {"line1": "1 34388U 93036QD  25352.58865118  .00001771  00000+0  46982-3 0  9993", "line2": "2 34388  74.0383 212.1350 0013873 260.0338 127.6426 14.49392854882400"}}, "geometry": {"type": "Point", "coordinates": [166.84592105020445, -67.80537663200633]}}, {"type": "Feature", "properties": {"norad_id": 34389, "name": "COSMOS 2251 DEB", "group": "cosmos-2251-debris", "lat": 45.3507279784843, "lon": 41.372625017323, "alt_km": 765.7346373437531, "timestamp": "2025-12-18T23:35:49.457359+00:00", "meta": {"OBJECT_NAME": "COSMOS 2251 DEB", "OBJECT_ID": "1993-036QE", "EPOCH": "2025-12-18T03:42:19.040256", "MEAN_MOTION": 14.41545905, "ECCENTRICITY": 0.0029148, "INCLINATION": 74.0182, "RA_OF_ASC_NODE": 239.774, "ARG_OF_PERICENTER": 350.8004, "MEAN_ANOMALY": 161.6868, "EPHEMERIS_TYPE": 0, "CLASSIFICATION_TYPE": "U", "NORAD_CAT_ID": 34389, "ELEMENT_SET_NO": 999, "REV_AT_EPOCH": 88090, "BSTAR": 0.00028115295, "MEAN_MOTION_DOT": 8.92e-06, "MEAN_MOTION_DDOT": 0}, "tle": {"line1": "1 34389U 93036QE  25352.15438704  .00000892  00000+0  28115-3 0  9995", "line2": "2 34389  74.0182 239.7740 0029148 350.8004 161.6868 14.41545905880906"}}, "geometry": {"type": "Point", "coordinates": [41.372625017323, 45.3507279784843]}}, {"type": "Feature", "properties": {"norad_id": 34396, "name": "COSMOS 2251 DEB", "group": "cosmos-2251-debris", "lat": 69.15320782784737, "lon": 160.6057960467862, "alt_km": 638.4232636837287, "timestamp": "2025-12-18T23:35:49.457370+00:00", "meta": {"OBJECT_NAME": "COSMOS 2251 DEB", "OBJECT_ID": "1993-036QM", "EPOCH": "2025-12-18T10:31:26.748192", "MEAN_MOTION": 14.74568293, "ECCENTRICITY": 0.00053281, "INCLINATION": 74.0293, "RA_OF_ASC_NODE": 112.9004, "ARG_OF_PERICENTER": 152.342, "MEAN_ANOMALY": 273.8188, "EPHEMERIS_TYPE": 0, "CLASSIFICATION_TYPE": "U", "NORAD_CAT_ID": 34396, "ELEMENT_SET_NO": 999, "REV_AT_EPOCH": 88430, "BSTAR": 0.0017799323, "MEAN_MOTION_DOT": 0.00011847, "MEAN_MOTION_DDOT": 0}, "tle": {"line1": "1 34396U 93036QM  25352.43850403  .00011847  00000+0  17799-2 0  9995", "line2": "2 34396  74.0293 112.9004 0005328 152.3420 273.8188 14.74568293884303"}}, "geometry": {"type": "Point", "coordinates": [160.6057960467862, 69.15320782784737]}}]}